[{"OBJECT_NAME":"GEESAT-4 04","OBJECT_ID":"2025-170D","EPOCH":"2026-03-09T23:17:55.914720","MEAN_MOTION":15.1505395,"ECCENTRICITY":0.00176751,"INCLINATION":49.9794,"RA_OF_ASC_NODE":229.0049,"ARG_OF_PERICENTER":290.2477,"MEAN_ANOMALY":69.6574,"EPHEMERIS_TYPE":0,"CLASSIFICATION_TYPE":"U","NORAD_CAT_ID":65122,"ELEMENT_SET_NO":999,"REV_AT_EPOCH":3230,"BSTAR":0.00059156623,"MEAN_MOTION_DOT":0.00010965,"MEAN_MOTION_DDOT":0},{"OBJECT_NAME":"FLOCK 4H-26","OBJECT_ID":"2025-276BR","EPOCH":"2026-03-09T16:57:19.420128","MEAN_MOTION":15.18363903,"ECCENTRICITY":0.00047713,"INCLINATION":97.4257,"RA_OF_ASC_NODE":143.8885,"ARG_OF_PERICENTER":14.6559,"MEAN_ANOMALY":345.4813,"EPHEMERIS_TYPE":0,"CLASSIFICATION_TYPE":"U","NORAD_CAT_ID":66729,"ELEMENT_SET_NO":999,"REV_AT_EPOCH":1531,"BSTAR":0.00037006955,"MEAN_MOTION_DOT":7.54e-5,"MEAN_MOTION_DDOT":0}]
